{
    "links": {
        "self": "http://www.neowsapp.com/rest/v1/neo/3443810?api_key=iIulBulltgU6a56xZRHN4H3l9WmuAYTsLGpBGhQ2"
    },
    "id": "3443810",
    "neo_reference_id": "3443810",
    "name": "(2009 AK)",
    "designation": "2009 AK",
    "nasa_jpl_url": "http://ssd.jpl.nasa.gov/sbdb.cgi?sstr=3443810",
    "absolute_magnitude_h": 19.7,
    "estimated_diameter": {
        "kilometers": {
            "estimated_diameter_min": 0.3051792326,
            "estimated_diameter_max": 0.6824015094
        },
        "meters": {
            "estimated_diameter_min": 305.1792325939,
            "estimated_diameter_max": 682.4015094011
        },
        "miles": {
            "estimated_diameter_min": 0.1896295249,
            "estimated_diameter_max": 0.4240245083
        },
        "feet": {
            "estimated_diameter_min": 1001.2442334633,
            "estimated_diameter_max": 2238.8501681036
        }
    },
    "is_potentially_hazardous_asteroid": false,
    "close_approach_data": [
        {
            "close_approach_date": "2009-01-11",
            "close_approach_date_full": "2009-Jan-11 01:10",
            "epoch_date_close_approach": 1231636200000,
            "relative_velocity": {
                "kilometers_per_second": "15.4552819646",
                "kilometers_per_hour": "55639.0150726658",
                "miles_per_hour": "34571.9202266795"
            },
            "miss_distance": {
                "astronomical": "0.3731252621",
                "lunar": "145.1457269569",
                "kilometers": "55818744.453351727",
                "miles": "34684159.4774667526"
            },
            "orbiting_body": "Earth"
        },
        {
            "close_approach_date": "2178-12-14",
            "close_approach_date_full": "2178-Dec-14 08:02",
            "epoch_date_close_approach": 6593904120000,
            "relative_velocity": {
                "kilometers_per_second": "18.2042113769",
                "kilometers_per_hour": "65535.1609568717",
                "miles_per_hour": "40721.0004290073"
            },
            "miss_distance": {
                "astronomical": "0.0764214443",
                "lunar": "29.7279418327",
                "kilometers": "11432485.289603641",
                "miles": "7103816.9505906058"
            },
            "orbiting_body": "Earth"
        }
    ],
    "orbital_data": {
        "orbit_id": "11",
        "orbit_determination_date": "2017-04-06 09:01:44",
        "first_observation_date": "2009-01-01",
        "last_observation_date": "2009-01-31",
        "data_arc_in_days": 30,
        "observations_used": 37,
        "orbit_uncertainty": "6",
        "minimum_orbit_intersection": ".0836772",
        "jupiter_tisserand_invariant": "2.995",
        "epoch_osculation": "2459000.5",
        "eccentricity": ".6303353848329569",
        "semi_major_axis": "2.584771793358905",
        "inclination": "26.22771643525336",
        "ascending_node_longitude": "259.6631379541402",
        "orbital_period": "1517.860067390904",
        "perihelion_distance": ".9554986702866473",
        "perihelion_argument": "226.4958841712313",
        "aphelion_distance": "4.214044916431162",
        "perihelion_time": "2459427.611561403480",
        "mean_anomaly": "258.6993825000246",
        "mean_motion": ".2371760136089587",
        "equinox": "J2000",
        "orbit_class": {
            "orbit_class_type": "APO",
            "orbit_class_description": "Near-Earth asteroid orbits which cross the Earth’s orbit similar to that of 1862 Apollo",
            "orbit_class_range": "a (semi-major axis) > 1.0 AU; q (perihelion) < 1.017 AU"
        }
    },
    "is_sentry_object": false
}